{
  "type": "FeatureCollection",
  "features": [
    {
      "type": "Feature",
      "properties": {
        "norad_id": 41330,
        "name": "COSMOS 2514 (751)",
        "group": "glo-ops",
        "lat": 51.25157931209422,
        "lon": -4.9633240094201785,
        "alt_km": 19154.092440142278,
        "timestamp": "2025-12-02T17:49:12.288899+00:00",
        "meta_object_name": "COSMOS 2514 (751)",
        "meta_object_id": "2016-008A",
        "meta_epoch": "2025-12-02T04:41:58.161120",
        "meta_mean_motion": 2.13102491,
        "meta_eccentricity": 0.0012493,
        "meta_inclination": 65.1398,
        "meta_ra_of_asc_node": 319.7653,
        "meta_arg_of_pericenter": 219.8518,
        "meta_mean_anomaly": 140.0636,
        "meta_ephemeris_type": 0,
        "meta_classification_type": "U",
        "meta_norad_cat_id": 41330,
        "meta_element_set_no": 999,
        "meta_rev_at_epoch": 7642,
        "meta_bstar": 0,
        "meta_mean_motion_dot": -3.3e-07,
        "meta_mean_motion_ddot": 0,
        "tle_line1": "1 41330U 16008A   25336.19581205 -.00000033  00000+0  00000+0 0  9991",
        "tle_line2": "2 41330  65.1398 319.7653 0012493 219.8518 140.0636  2.13102491 76424"
      },
      "geometry": {
        "type": "Point",
        "coordinates": [
          -4.9633240094201785,
          51.25157931209422
        ]
      }
    },
    {
      "type": "Feature",
      "properties": {
        "norad_id": 42939,
        "name": "COSMOS 2522 (752)",
        "group": "glo-ops",
        "lat": -2.9704354901305448,
        "lon": 20.017367007435013,
        "alt_km": 19118.554358439917,
        "timestamp": "2025-12-02T17:49:12.288910+00:00",
        "meta_object_name": "COSMOS 2522 (752)",
        "meta_object_id": "2017-055A",
        "meta_epoch": "2025-12-02T00:49:19.068672",
        "meta_mean_motion": 2.13101864,
        "meta_eccentricity": 0.0006552,
        "meta_inclination": 64.0757,
        "meta_ra_of_asc_node": 198.5937,
        "meta_arg_of_pericenter": 226.1322,
        "meta_mean_anomaly": 133.9083,
        "meta_ephemeris_type": 0,
        "meta_classification_type": "U",
        "meta_norad_cat_id": 42939,
        "meta_element_set_no": 999,
        "meta_rev_at_epoch": 6377,
        "meta_bstar": 0,
        "meta_mean_motion_dot": 1.06e-06,
        "meta_mean_motion_ddot": 0,
        "tle_line1": "1 42939U 17055A   25336.03424848  .00000106  00000+0  00000+0 0  9992",
        "tle_line2": "2 42939  64.0757 198.5937 0006552 226.1322 133.9083  2.13101864 63772"
      },
      "geometry": {
        "type": "Point",
        "coordinates": [
          20.017367007435013,
          -2.9704354901305448
        ]
      }
    },
    {
      "type": "Feature",
      "properties": {
        "norad_id": 43508,
        "name": "COSMOS 2527 (756)",
        "group": "glo-ops",
        "lat": -30.124041192850093,
        "lon": -84.19160834248207,
        "alt_km": 19112.327788113744,
        "timestamp": "2025-12-02T17:49:12.288921+00:00",
        "meta_object_name": "COSMOS 2527 (756)",
        "meta_object_id": "2018-053A",
        "meta_epoch": "2025-12-02T11:08:26.615616",
        "meta_mean_motion": 2.13102038,
        "meta_eccentricity": 0.0008635,
        "meta_inclination": 65.467,
        "meta_ra_of_asc_node": 80.4752,
        "meta_arg_of_pericenter": 223.9095,
        "meta_mean_anomaly": 136.0181,
        "meta_ephemeris_type": 0,
        "meta_classification_type": "U",
        "meta_norad_cat_id": 43508,
        "meta_element_set_no": 999,
        "meta_rev_at_epoch": 5808,
        "meta_bstar": 0,
        "meta_mean_motion_dot": -1.9e-07,
        "meta_mean_motion_ddot": 0,
        "tle_line1": "1 43508U 18053A   25336.46419694 -.00000019  00000+0  00000+0 0  9998",
        "tle_line2": "2 43508  65.4670  80.4752 0008635 223.9095 136.0181  2.13102038 58089"
      },
      "geometry": {
        "type": "Point",
        "coordinates": [
          -84.19160834248207,
          -30.124041192850093
        ]
      }
    },
    {
      "type": "Feature",
      "properties": {
        "norad_id": 43687,
        "name": "COSMOS 2529 (757)",
        "group": "glo-ops",
        "lat": 36.58113295377966,
        "lon": -1.7107115587444803,
        "alt_km": 19133.822876559236,
        "timestamp": "2025-12-02T17:49:12.288953+00:00",
        "meta_object_name": "COSMOS 2529 (757)",
        "meta_object_id": "2018-086A",
        "meta_epoch": "2025-12-02T02:13:08.231232",
        "meta_mean_motion": 2.13101888,
        "meta_eccentricity": 0.0007319,
        "meta_inclination": 64.2916,
        "meta_ra_of_asc_node": 199.2482,
        "meta_arg_of_pericenter": 254.4922,
        "meta_mean_anomaly": 105.5219,
        "meta_ephemeris_type": 0,
        "meta_classification_type": "U",
        "meta_norad_cat_id": 43687,
        "meta_element_set_no": 999,
        "meta_rev_at_epoch": 5508,
        "meta_bstar": 0,
        "meta_mean_motion_dot": 1.05e-06,
        "meta_mean_motion_ddot": 0,
        "tle_line1": "1 43687U 18086A   25336.09245638  .00000105  00000+0  00000+0 0  9991",
        "tle_line2": "2 43687  64.2916 199.2482 0007319 254.4922 105.5219  2.13101888 55084"
      },
      "geometry": {
        "type": "Point",
        "coordinates": [
          -1.7107115587444803,
          36.58113295377966
        ]
      }
    },
    {
      "type": "Feature",
      "properties": {
        "norad_id": 44299,
        "name": "COSMOS 2534 (758)",
        "group": "glo-ops",
        "lat": -64.1940144913989,
        "lon": 116.22444769631204,
        "alt_km": 19113.622109106727,
        "timestamp": "2025-12-02T17:49:12.288981+00:00",
        "meta_object_name": "COSMOS 2534 (758)",
        "meta_object_id": "2019-030A",
        "meta_epoch": "2025-12-01T03:07:57.438624",
        "meta_mean_motion": 2.1310195,
        "meta_eccentricity": 0.00091167,
        "meta_inclination": 64.3652,
        "meta_ra_of_asc_node": 199.2842,
        "meta_arg_of_pericenter": 283.4428,
        "meta_mean_anomaly": 193.0266,
        "meta_ephemeris_type": 0,
        "meta_classification_type": "U",
        "meta_norad_cat_id": 44299,
        "meta_element_set_no": 999,
        "meta_rev_at_epoch": 5070,
        "meta_bstar": 0,
        "meta_mean_motion_dot": 9.9e-07,
        "meta_mean_motion_ddot": 0,
        "tle_line1": "1 44299U 19030A   25335.13052591  .00000099  00000+0  00000+0 0  9991",
        "tle_line2": "2 44299  64.3652 199.2842 0009116 283.4428 193.0266  2.13101950 50700"
      },
      "geometry": {
        "type": "Point",
        "coordinates": [
          116.22444769631204,
          -64.1940144913989
        ]
      }
    },
    {
      "type": "Feature",
      "properties": {
        "norad_id": 44850,
        "name": "COSMOS 2544 (759)",
        "group": "glo-ops",
        "lat": -61.95608671862383,
        "lon": -40.77073996465744,
        "alt_km": 19101.852106770835,
        "timestamp": "2025-12-02T17:49:12.288995+00:00",
        "meta_object_name": "COSMOS 2544 (759)",
        "meta_object_id": "2019-088A",
        "meta_epoch": "2025-12-02T09:48:35.343360",
        "meta_mean_motion": 2.13101818,
        "meta_eccentricity": 0.0013669,
        "meta_inclination": 65.4544,
        "meta_ra_of_asc_node": 80.304,
        "meta_arg_of_pericenter": 248.8168,
        "meta_mean_anomaly": 111.0338,
        "meta_ephemeris_type": 0,
        "meta_classification_type": "U",
        "meta_norad_cat_id": 44850,
        "meta_element_set_no": 999,
        "meta_rev_at_epoch": 4652,
        "meta_bstar": 0,
        "meta_mean_motion_dot": -1.9e-07,
        "meta_mean_motion_ddot": 0,
        "tle_line1": "1 44850U 19088A   25336.40874240 -.00000019  00000+0  00000+0 0  9994",
        "tle_line2": "2 44850  65.4544  80.3040 0013669 248.8168 111.0338  2.13101818 46527"
      },
      "geometry": {
        "type": "Point",
        "coordinates": [
          -40.77073996465744,
          -61.95608671862383
        ]
      }
    },
    {
      "type": "Feature",
      "properties": {
        "norad_id": 45358,
        "name": "COSMOS 2545 (760)",
        "group": "glo-ops",
        "lat": 60.330517820988916,
        "lon": 82.29488839777922,
        "alt_km": 19147.486013091697,
        "timestamp": "2025-12-02T17:49:12.289008+00:00",
        "meta_object_name": "COSMOS 2545 (760)",
        "meta_object_id": "2020-018A",
        "meta_epoch": "2025-11-30T06:11:57.120864",
        "meta_mean_motion": 2.13102401,
        "meta_eccentricity": 0.00119448,
        "meta_inclination": 64.4769,
        "meta_ra_of_asc_node": 319.4079,
        "meta_arg_of_pericenter": 248.2158,
        "meta_mean_anomaly": 111.6706,
        "meta_ephemeris_type": 0,
        "meta_classification_type": "U",
        "meta_norad_cat_id": 45358,
        "meta_element_set_no": 999,
        "meta_rev_at_epoch": 4442,
        "meta_bstar": 0,
        "meta_mean_motion_dot": -2.2e-07,
        "meta_mean_motion_ddot": 0,
        "tle_line1": "1 45358U 20018A   25334.25830001 -.00000022  00000+0  00000+0 0  9995",
        "tle_line2": "2 45358  64.4769 319.4079 0011944 248.2158 111.6706  2.13102401 44425"
      },
      "geometry": {
        "type": "Point",
        "coordinates": [
          82.29488839777922,
          60.330517820988916
        ]
      }
    }
  ]
}